NORAD_CAT_ID,OBJECT_NAME,OBJECT_TYPE,EPOCH,MEAN_MOTION,ECCENTRICITY,INCLINATION,RA_OF_ASC_NODE,ARG_OF_PERICENTER,MEAN_ANOMALY,BSTAR,MEAN_MOTION_DOT,MEAN_MOTION_DDOT,TLE_LINE0,TLE_LINE1,TLE_LINE2,SEMIMAJOR_AXIS,PERIOD,APOGEE,PERIGEE,DECAYED
53244.0,STARLINK-4125,PAYLOAD,2023-04-06 21:41:48,15.08840126,0.0001665,53.2162,317.5965,90.6287,269.4896,0.00013193,1.812e-05,0.0,0 STARLINK-4125,1 53244U 22086C   23096.90403270  .00001812  00000-0  13193-3 0  9993,2 53244  53.2162 317.5965 0001665  90.6287 269.4896 15.08840126 39545,6917.88,95.438,540.897,538.593,0.0
53244.0,STARLINK-4125,PAYLOAD,2023-04-07 13:35:39,15.0883977,0.0001165,53.2164,314.6245,90.2139,269.8986,0.00014064,1.951e-05,0.0,0 STARLINK-4125,1 53244U 22086C   23097.56643393  .00001951  00000-0  14064-3 0  9990,2 53244  53.2164 314.6245 0001165  90.2139 269.8986 15.08839770 40148,6917.881,95.438,540.552,538.94,0.0
53244.0,STARLINK-4125,PAYLOAD,2023-04-08 00:43:21,15.0884716,7.85e-05,53.2161,312.5427,82.1239,277.9842,0.00023251,3.415e-05,0.0,0 STARLINK-4125,1 53244U 22086C   23098.03011066  .00003415  00000-0  23251-3 0  9994,2 53244  53.2161 312.5427 0000785  82.1239 277.9842 15.08847160 39716,6917.859,95.437,540.267,539.18,0.0
53244.0,STARLINK-4125,PAYLOAD,2023-04-08 18:12:36,15.08835267,0.0002,53.2151,309.2706,97.2588,262.8632,8.1222e-05,1.005e-05,0.0,0 STARLINK-4125,1 53244U 22086C   23098.75875795  .00001005  00000-0  81222-4 0  9996,2 53244  53.2151 309.2706 0002000  97.2588 262.8632 15.08835267 39821,6917.895,95.438,541.143,538.376,0.0
53244.0,STARLINK-4125,PAYLOAD,2023-04-09 00:34:09,15.08840097,0.0001073,53.2154,308.0811,84.7781,275.3334,0.00012481,1.699e-05,0.0,0 STARLINK-4125,1 53244U 22086C   23099.02371669  .00001699  00000-0  12481-3 0  9997,2 53244  53.2154 308.0811 0001073  84.7781 275.3334 15.08840097 40369,6917.88,95.438,540.487,539.003,0.0
53244.0,STARLINK-4125,PAYLOAD,2023-04-09 18:03:23,15.08839797,0.0001461,53.2158,304.8092,101.6649,258.4507,0.00017363,2.476e-05,0.0,0 STARLINK-4125,1 53244U 22086C   23099.75235869  .00002476  00000-0  17363-3 0  9996,2 53244  53.2158 304.8092 0001461 101.6649 258.4507 15.08839797 40472,6917.881,95.438,540.757,538.735,0.0
53244.0,STARLINK-4125,PAYLOAD,2023-04-10 00:24:56,15.08845705,0.0001325,53.2164,303.6192,99.5385,260.5757,0.00024937,3.684e-05,0.0,0 STARLINK-4125,1 53244U 22086C   23100.01731636  .00003684  00000-0  24937-3 0  9998,2 53244  53.2164 303.6192 0001325  99.5385 260.5757 15.08845705 40015,6917.863,95.437,540.645,538.811,0.0
53244.0,STARLINK-4125,PAYLOAD,2023-04-10 19:29:33,15.08845349,0.00012,53.217,300.0502,85.9301,274.1829,0.00021501,3.136e-05,0.0,0 STARLINK-4125,1 53244U 22086C   23100.81219731  .00003136  00000-0  21501-3 0  9999,2 53244  53.2170 300.0502 0001200  85.9301 274.1829 15.08845349 40630,6917.864,95.437,540.559,538.899,0.0
53244.0,STARLINK-4125,PAYLOAD,2023-04-11 12:58:48,15.08841439,0.0001036,53.2165,296.7784,111.9828,248.1274,0.00015751,2.22e-05,0.0,0 STARLINK-4125,1 53244U 22086C   23101.54083912  .00002220  00000-0  15751-3 0  9993,2 53244  53.2165 296.7784 0001036 111.9828 248.1274 15.08841439 40246,6917.876,95.437,540.458,539.024,0.0
53244.0,STARLINK-4125,PAYLOAD,2023-04-11 19:20:21,15.08843361,0.0001089,53.2168,295.5927,89.4635,270.6482,0.00013719,1.896e-05,0.0,0 STARLINK-4125,1 53244U 22086C   23101.80579889  .00001896  00000-0  13719-3 0  9995,2 53244  53.2168 295.5927 0001089  89.4635 270.6482 15.08843361 40784,6917.87,95.437,540.488,538.982,0.0
53244.0,STARLINK-4125,PAYLOAD,2023-04-12 12:49:35,15.08842853,0.0001535,53.213,292.3188,92.3248,267.792,5.5228e-05,5.91e-06,0.0,0 STARLINK-4125,1 53244U 22086C   23102.53443879  .00000591  00000-0  55228-4 0  9998,2 53244  53.2130 292.3188 0001535  92.3248 267.7920 15.08842853 40897,6917.872,95.437,540.799,538.675,0.0
53244.0,STARLINK-4125,PAYLOAD,2023-04-12 19:11:08,15.08845988,3.1e-05,53.2222,291.1328,329.4938,30.6037,0.00019719,2.853e-05,0.0,0 STARLINK-4125,1 53244U 22086C   23102.79939833  .00002853  00000-0  19719-3 0  9993,2 53244  53.2222 291.1328 0000310 329.4938  30.6037 15.08845988 40430,6917.862,95.437,539.942,539.513,0.0
53244.0,STARLINK-4125,PAYLOAD,2023-04-12 22:21:54,15.08848117,0.0001158,53.2171,290.537,89.3601,270.7524,0.00022214,3.25e-05,0.0,0 STARLINK-4125,1 53244U 22086C   23102.93187677  .00003250  00000-0  22214-3 0  9996,2 53244  53.2171 290.5370 0001158  89.3601 270.7524 15.08848117 40955,6917.856,95.437,540.522,538.919,0.0
53244.0,STARLINK-4125,PAYLOAD,2023-04-13 12:40:22,15.08839171,0.0001443,53.2178,287.8615,92.9591,267.1566,8.3645e-05,1.043e-05,0.0,0 STARLINK-4125,1 53244U 22086C   23103.52804120  .00001043  00000-0  83645-4 0  9995,2 53244  53.2178 287.8615 0001443  92.9591 267.1566 15.08839171 40549,6917.883,95.438,540.746,538.75,0.0
53244.0,STARLINK-4125,PAYLOAD,2023-04-14 12:31:09,15.0883835,0.0001187,53.2173,283.4002,88.5511,271.5617,-1.4807e-05,-5.23e-06,0.0,0 STARLINK-4125,1 53244U 22086C   23104.52164118 -.00000523  00000-0 -14807-4 0  9990,2 53244  53.2173 283.4002 0001187  88.5511 271.5617 15.08838350 41190,6917.885,95.438,540.572,538.929,0.0
53244.0,STARLINK-4125,PAYLOAD,2023-04-14 22:03:27,15.08850519,0.0001163,53.2156,281.6156,85.4776,274.6348,0.00016535,2.345e-05,0.0,0 STARLINK-4125,1 53244U 22086C   23104.91907406  .00002345  00000-0  16535-3 0  9999,2 53244  53.2156 281.6156 0001163  85.4776 274.6348 15.08850519 40751,6917.848,95.437,540.518,538.909,0.0
53244.0,STARLINK-4125,PAYLOAD,2023-04-15 04:25:01,15.08833845,0.0001631,53.2176,280.4262,76.6463,283.4711,-6.3967e-05,-1.306e-05,0.0,0 STARLINK-4125,1 53244U 22086C   23105.18404372 -.00001306  00000-0 -63967-4 0  9993,2 53244  53.2176 280.4262 0001631  76.6463 283.4711 15.08833845 40792,6917.899,95.438,540.893,538.636,0.0
53244.0,STARLINK-4125,PAYLOAD,2023-04-15 12:21:56,15.08835496,0.0001011,53.2165,278.9394,83.3276,276.7831,-2.7333e-05,-7.23e-06,0.0,0 STARLINK-4125,1 53244U 22086C   23105.51524270 -.00000723  00000-0 -27333-4 0  9999,2 53244  53.2165 278.9394 0001011  83.3276 276.7831 15.08835496 41341,6917.894,95.438,540.459,539.06,0.0
53244.0,STARLINK-4125,PAYLOAD,2023-04-15 20:18:52,15.08846053,9.35e-05,53.2161,277.4525,83.4461,276.6637,0.00017499,2.499e-05,0.0,0 STARLINK-4125,1 53244U 22086C   23105.84643718  .00002499  00000-0  17499-3 0  9995,2 53244  53.2161 277.4525 0000935  83.4461 276.6637 15.08846053 40891,6917.862,95.437,540.374,539.08,0.0
53244.0,STARLINK-4125,PAYLOAD,2023-04-16 12:12:43,15.08837769,0.0001138,53.2142,274.4768,96.6182,263.494,6.0593e-05,6.77e-06,0.0,0 STARLINK-4125,1 53244U 22086C   23106.50884247  .00000677  00000-0  60593-4 0  9993,2 53244  53.2142 274.4768 0001138  96.6182 263.4940 15.08837769 40994,6917.887,95.438,540.539,538.965,0.0
53244.0,STARLINK-4125,PAYLOAD,2023-04-16 20:09:39,15.08849496,9.27e-05,53.2151,272.9911,93.9058,266.204,0.00023827,3.507e-05,0.0,0 STARLINK-4125,1 53244U 22086C   23106.84003689  .00003507  00000-0  23827-3 0  9996,2 53244  53.2151 272.9911 0000927  93.9058 266.2040 15.08849496 41548,6917.851,95.437,540.358,539.075,0.0
53244.0,STARLINK-4125,PAYLOAD,2023-04-17 04:06:35,15.08830286,6.92e-05,53.2159,271.5049,107.2983,252.8085,-0.00016558,-2.921e-05,0.0,0 STARLINK-4125,1 53244U 22086C   23107.17124188 -.00002921  00000-0 -16558-3 0  9995,2 53244  53.2159 271.5049 0000692 107.2983 252.8085 15.08830286 41095,6917.91,95.438,540.254,539.296,0.0
53244.0,STARLINK-4125,PAYLOAD,2023-04-17 10:28:07,15.08831319,6.11e-05,53.2162,270.3154,101.8732,258.2329,-6.5477e-05,-1.329e-05,0.0,0 STARLINK-4125,1 53244U 22086C   23107.43620366 -.00001329  00000-0 -65477-4 0  9999,2 53244  53.2162 270.3154 0000611 101.8732 258.2329 15.08831319 41635,6917.907,95.438,540.195,539.349,0.0
53244.0,STARLINK-4125,PAYLOAD,2023-04-17 18:25:03,15.08859161,0.0001027,53.2153,268.8284,90.0134,270.0976,0.0011072,0.00017386,0.0,0 STARLINK-4125,1 53244U 22086C   23107.76739949  .00017386  00000-0  11072-2 0  9991,2 53244  53.2153 268.8284 0001027  90.0134 270.0976 15.08859161 41688,6917.822,95.436,540.397,538.976,0.0
53244.0,STARLINK-4125,PAYLOAD,2023-04-18 10:18:54,15.0883576,6.8e-05,53.2153,265.8554,97.7,262.4069,0.00013724,1.897e-05,0.0,0 STARLINK-4125,1 53244U 22086C   23108.42980194  .00001897  00000-0  13724-3 0  9992,2 53244  53.2153 265.8554 0000680  97.7000 262.4069 15.08835760 41783,6917.893,95.438,540.229,539.288,0.0
53244.0,STARLINK-4125,PAYLOAD,2023-04-18 16:40:27,15.08848078,8.54e-05,53.2149,264.665,98.8516,261.2572,0.0017513,0.000277,0.0,0 STARLINK-4125,1 53244U 22086C   23108.69476361  .00027700  00000-0  17513-2 0  9997,2 53244  53.2149 264.6650 0000854  98.8516 261.2572 15.08848078 41826,6917.856,95.437,540.311,539.13,0.0
53244.0,STARLINK-4125,PAYLOAD,2023-04-19 10:09:42,15.08844324,0.0001144,53.2162,261.3936,93.4001,266.7122,0.00067324,0.00010444,0.0,0 STARLINK-4125,1 53244U 22086C   23109.42340603  .00010444  00000-0  67324-3 0  9991,2 53244  53.2162 261.3936 0001144  93.4001 266.7122 15.08844324 41938,6917.867,95.437,540.524,538.941,0.0
53244.0,STARLINK-4125,PAYLOAD,2023-04-19 16:31:14,15.08845428,0.0001115,53.2167,260.2058,78.8525,281.2593,0.00053832,8.291e-05,0.0,0 STARLINK-4125,1 53244U 22086C   23109.68836591  .00008291  00000-0  53832-3 0  9991,2 53244  53.2167 260.2058 0001115  78.8525 281.2593 15.08845428 41976,6917.864,95.437,540.5,538.957,0.0
53244.0,STARLINK-4125,PAYLOAD,2023-04-20 10:00:29,15.08846886,0.0001429,53.2143,256.9348,66.6899,293.4244,0.00043146,6.587e-05,0.0,0 STARLINK-4125,1 53244U 22086C   23110.41700526  .00006587  00000-0  43146-3 0  9995,2 53244  53.2143 256.9348 0001429  66.6899 293.4244 15.08846886 42081,6917.859,95.437,540.713,538.736,0.0
53244.0,STARLINK-4125,PAYLOAD,2023-04-20 13:11:15,15.08844255,0.0001222,53.2143,256.3381,88.8732,271.2401,0.00020751,3.017e-05,0.0,0 STARLINK-4125,1 53244U 22086C   23110.54948379  .00003017  00000-0  20751-3 0  9991,2 53244  53.2143 256.3381 0001222  88.8732 271.2401 15.08844255 41609,6917.867,95.437,540.578,538.887,0.0
